CCSDS_OMM_VERS = 2.0
CREATION_DATE  = 
ORIGINATOR     = 

OBJECT_NAME    = STARLINK-35818
OBJECT_ID      = 2025-265AA
CENTER_NAME    = EARTH
REF_FRAME      = TEME
TIME_SYSTEM    = UTC
MEAN_ELEMENT_THEORY = SGP/SGP4

EPOCH          = 2025-12-09T06:00:02.000160
MEAN_MOTION    = 15.53419651
ECCENTRICITY   = .00016274
INCLINATION    = 43.0002
RA_OF_ASC_NODE = 74.3231
ARG_OF_PERICENTER = 276.9822
MEAN_ANOMALY   = 199.1978

EPHEMERIS_TYPE = 0
CLASSIFICATION_TYPE = U
NORAD_CAT_ID   = 66540
ELEMENT_SET_NO = 999
REV_AT_EPOCH   = 443
BSTAR          = -.31898231E-1
MEAN_MOTION_DOT = -.1836015E-1
MEAN_MOTION_DDOT = 0

CCSDS_OMM_VERS = 2.0
CREATION_DATE  = 
ORIGINATOR     = 

OBJECT_NAME    = STARLINK-35796
OBJECT_ID      = 2025-265AB
CENTER_NAME    = EARTH
REF_FRAME      = TEME
TIME_SYSTEM    = UTC
MEAN_ELEMENT_THEORY = SGP/SGP4

EPOCH          = 2025-12-09T06:00:02.000160
MEAN_MOTION    = 15.53422833
ECCENTRICITY   = .0001647
INCLINATION    = 43.0000
RA_OF_ASC_NODE = 74.3182
ARG_OF_PERICENTER = 277.1387
MEAN_ANOMALY   = 200.9573

EPHEMERIS_TYPE = 0
CLASSIFICATION_TYPE = U
NORAD_CAT_ID   = 66541
ELEMENT_SET_NO = 999
REV_AT_EPOCH   = 443
BSTAR          = -.32018823E-1
MEAN_MOTION_DOT = -.184236E-1
MEAN_MOTION_DDOT = 0

CCSDS_OMM_VERS = 2.0
CREATION_DATE  = 
ORIGINATOR     = 

OBJECT_NAME    = STARLINK-35833
OBJECT_ID      = 2025-265AC
CENTER_NAME    = EARTH
REF_FRAME      = TEME
TIME_SYSTEM    = UTC
MEAN_ELEMENT_THEORY = SGP/SGP4

EPOCH          = 2025-12-09T06:00:02.000160
MEAN_MOTION    = 15.53421291
ECCENTRICITY   = .00016602
INCLINATION    = 43.0001
RA_OF_ASC_NODE = 74.3137
ARG_OF_PERICENTER = 279.3151
MEAN_ANOMALY   = 200.6994

EPHEMERIS_TYPE = 0
CLASSIFICATION_TYPE = U
NORAD_CAT_ID   = 66542
ELEMENT_SET_NO = 999
REV_AT_EPOCH   = 443
BSTAR          = -.32006225E-1
MEAN_MOTION_DOT = -.1841634E-1
MEAN_MOTION_DDOT = 0

CCSDS_OMM_VERS = 2.0
CREATION_DATE  = 
ORIGINATOR     = 

OBJECT_NAME    = STARLINK-35315
OBJECT_ID      = 2025-265AD
CENTER_NAME    = EARTH
REF_FRAME      = TEME
TIME_SYSTEM    = UTC
MEAN_ELEMENT_THEORY = SGP/SGP4

EPOCH          = 2025-12-09T06:00:02.000160
MEAN_MOTION    = 15.53420011
ECCENTRICITY   = .00016385
INCLINATION    = 43.0003
RA_OF_ASC_NODE = 74.3085
ARG_OF_PERICENTER = 276.6666
MEAN_ANOMALY   = 205.2646

EPHEMERIS_TYPE = 0
CLASSIFICATION_TYPE = U
NORAD_CAT_ID   = 66543
ELEMENT_SET_NO = 999
REV_AT_EPOCH   = 432
BSTAR          = -.31916882E-1
MEAN_MOTION_DOT = -.1836993E-1
MEAN_MOTION_DDOT = 0

CCSDS_OMM_VERS = 2.0
CREATION_DATE  = 
ORIGINATOR     = 

OBJECT_NAME    = STARLINK-35728
OBJECT_ID      = 2025-265AE
CENTER_NAME    = EARTH
REF_FRAME      = TEME
TIME_SYSTEM    = UTC
MEAN_ELEMENT_THEORY = SGP/SGP4

EPOCH          = 2025-12-09T06:00:02.000160
MEAN_MOTION    = 15.53417360
ECCENTRICITY   = .00015022
INCLINATION    = 43.0000
RA_OF_ASC_NODE = 74.3038
ARG_OF_PERICENTER = 275.7692
MEAN_ANOMALY   = 208.0822

EPHEMERIS_TYPE = 0
CLASSIFICATION_TYPE = U
NORAD_CAT_ID   = 66544
ELEMENT_SET_NO = 999
REV_AT_EPOCH   = 443
BSTAR          = -.31889917E-1
MEAN_MOTION_DOT = -.183538E-1
MEAN_MOTION_DDOT = 0

CCSDS_OMM_VERS = 2.0
CREATION_DATE  = 
ORIGINATOR     = 

OBJECT_NAME    = SHIJIAN-30A
OBJECT_ID      = 2025-266A
CENTER_NAME    = EARTH
REF_FRAME      = TEME
TIME_SYSTEM    = UTC
MEAN_ELEMENT_THEORY = SGP/SGP4

EPOCH          = 2025-12-09T07:52:23.952864
MEAN_MOTION    = 15.15540619
ECCENTRICITY   = .00127822
INCLINATION    = 51.7993
RA_OF_ASC_NODE = 348.8452
ARG_OF_PERICENTER = 343.9830
MEAN_ANOMALY   = 16.0740

EPHEMERIS_TYPE = 0
CLASSIFICATION_TYPE = U
NORAD_CAT_ID   = 66545
ELEMENT_SET_NO = 999
REV_AT_EPOCH   = 306
BSTAR          = .74024895E-3
MEAN_MOTION_DOT = .13955E-3
MEAN_MOTION_DDOT = 0

CCSDS_OMM_VERS = 2.0
CREATION_DATE  = 
ORIGINATOR     = 

OBJECT_NAME    = SHIJIAN-30B
OBJECT_ID      = 2025-266B
CENTER_NAME    = EARTH
REF_FRAME      = TEME
TIME_SYSTEM    = UTC
MEAN_ELEMENT_THEORY = SGP/SGP4

EPOCH          = 2025-12-09T07:53:22.672032
MEAN_MOTION    = 15.15633464
ECCENTRICITY   = .00104496
INCLINATION    = 51.7975
RA_OF_ASC_NODE = 348.8467
ARG_OF_PERICENTER = 347.1112
MEAN_ANOMALY   = 12.9596

EPHEMERIS_TYPE = 0
CLASSIFICATION_TYPE = U
NORAD_CAT_ID   = 66546
ELEMENT_SET_NO = 999
REV_AT_EPOCH   = 306
BSTAR          = .84590416E-3
MEAN_MOTION_DOT = .16029E-3
MEAN_MOTION_DDOT = 0

CCSDS_OMM_VERS = 2.0
CREATION_DATE  = 
ORIGINATOR     = 

OBJECT_NAME    = SHIJIAN-30C
OBJECT_ID      = 2025-266C
CENTER_NAME    = EARTH
REF_FRAME      = TEME
TIME_SYSTEM    = UTC
MEAN_ELEMENT_THEORY = SGP/SGP4

EPOCH          = 2025-12-09T07:54:20.786400
MEAN_MOTION    = 15.15641651
ECCENTRICITY   = .00113601
INCLINATION    = 51.7984
RA_OF_ASC_NODE = 348.8525
ARG_OF_PERICENTER = 339.3925
MEAN_ANOMALY   = 20.6592

EPHEMERIS_TYPE = 0
CLASSIFICATION_TYPE = U
NORAD_CAT_ID   = 66547
ELEMENT_SET_NO = 999
REV_AT_EPOCH   = 306
BSTAR          = .75667219E-3
MEAN_MOTION_DOT = .14308E-3
MEAN_MOTION_DDOT = 0

CCSDS_OMM_VERS = 2.0
CREATION_DATE  = 
ORIGINATOR     = 

OBJECT_NAME    = CZ-2C R/B
OBJECT_ID      = 2025-266D
CENTER_NAME    = EARTH
REF_FRAME      = TEME
TIME_SYSTEM    = UTC
MEAN_ELEMENT_THEORY = SGP/SGP4

EPOCH          = 2025-12-09T06:29:52.577088
MEAN_MOTION    = 15.30065913
ECCENTRICITY   = .00841264
INCLINATION    = 52.0568
RA_OF_ASC_NODE = 347.8047
ARG_OF_PERICENTER = 161.1693
MEAN_ANOMALY   = 199.2437

EPHEMERIS_TYPE = 0
CLASSIFICATION_TYPE = U
NORAD_CAT_ID   = 66548
ELEMENT_SET_NO = 999
REV_AT_EPOCH   = 308
BSTAR          = .42678223E-3
MEAN_MOTION_DOT = .13661E-3
MEAN_MOTION_DDOT = 0

CCSDS_OMM_VERS = 2.0
CREATION_DATE  = 
ORIGINATOR     = 

OBJECT_NAME    = SHIJIAN-28
OBJECT_ID      = 2025-277A
CENTER_NAME    = EARTH
REF_FRAME      = TEME
TIME_SYSTEM    = UTC
MEAN_ELEMENT_THEORY = SGP/SGP4

EPOCH          = 2025-12-01T04:36:42.476256
MEAN_MOTION    = 2.08595383
ECCENTRICITY   = .6308324
INCLINATION    = 11.5392
RA_OF_ASC_NODE = 275.7060
ARG_OF_PERICENTER = 179.9335
MEAN_ANOMALY   = 180.3971

EPHEMERIS_TYPE = 0
CLASSIFICATION_TYPE = U
NORAD_CAT_ID   = 66549
ELEMENT_SET_NO = 999
REV_AT_EPOCH   = 5
BSTAR          = 0
MEAN_MOTION_DOT = -.33E-6
MEAN_MOTION_DDOT = 0

CCSDS_OMM_VERS = 2.0
CREATION_DATE  = 
ORIGINATOR     = 

OBJECT_NAME    = CZ-7A R/B
OBJECT_ID      = 2025-277B
CENTER_NAME    = EARTH
REF_FRAME      = TEME
TIME_SYSTEM    = UTC
MEAN_ELEMENT_THEORY = SGP/SGP4

EPOCH          = 2025-12-08T10:49:33.008736
MEAN_MOTION    = 2.55273447
ECCENTRICITY   = .7123859
INCLINATION    = 14.4003
RA_OF_ASC_NODE = 272.0222
ARG_OF_PERICENTER = 184.9879
MEAN_ANOMALY   = 159.4980

EPHEMERIS_TYPE = 0
CLASSIFICATION_TYPE = U
NORAD_CAT_ID   = 66550
ELEMENT_SET_NO = 999
REV_AT_EPOCH   = 23
BSTAR          = .28793E-2
MEAN_MOTION_DOT = .1610432E-1
MEAN_MOTION_DDOT = .91299E-6

CCSDS_OMM_VERS = 2.0
CREATION_DATE  = 
ORIGINATOR     = 

OBJECT_NAME    = UNKNOWN
OBJECT_ID      = 2025-271AE
CENTER_NAME    = EARTH
REF_FRAME      = TEME
TIME_SYSTEM    = UTC
MEAN_ELEMENT_THEORY = SGP/SGP4

EPOCH          = 2025-12-02T16:00:03.000096
MEAN_MOTION    = 15.87051116
ECCENTRICITY   = .0000717
INCLINATION    = 53.1571
RA_OF_ASC_NODE = 236.7807
ARG_OF_PERICENTER = 110.7411
MEAN_ANOMALY   = 313.9012

EPHEMERIS_TYPE = 0
CLASSIFICATION_TYPE = U
NORAD_CAT_ID   = 66551
ELEMENT_SET_NO = 999
REV_AT_EPOCH   = 262
BSTAR          = -.74303E-2
MEAN_MOTION_DOT = -.1709685E-1
MEAN_MOTION_DDOT = 0

