STARLINK-35818          
1 66540U 25265AA  25343.25002315 -.01836015  00000+0 -31898-1 0  9991
2 66540  43.0002  74.3231 0001627 276.9822 199.1978 15.53419651  4439
STARLINK-35796          
1 66541U 25265AB  25343.25002315 -.01842360  00000+0 -32019-1 0  9998
2 66541  43.0000  74.3182 0001647 277.1387 200.9573 15.53422833  4432
STARLINK-35833          
1 66542U 25265AC  25343.25002315 -.01841634  00000+0 -32006-1 0  9998
2 66542  43.0001  74.3137 0001660 279.3151 200.6994 15.53421291  4433
STARLINK-35315          
1 66543U 25265AD  25343.25002315 -.01836993  00000+0 -31917-1 0  9991
2 66543  43.0003  74.3085 0001638 276.6666 205.2646 15.53420011  4326
STARLINK-35728          
1 66544U 25265AE  25343.25002315 -.01835380  00000+0 -31890-1 0  9991
2 66544  43.0000  74.3038 0001502 275.7692 208.0822 15.53417360  4433
SHIJIAN-30A             
1 66545U 25266A   25343.32805501  .00013955  00000+0  74025-3 0  9991
2 66545  51.7993 348.8452 0012782 343.9830  16.0740 15.15540619  3060
SHIJIAN-30B             
1 66546U 25266B   25343.32873463  .00016029  00000+0  84590-3 0  9997
2 66546  51.7975 348.8467 0010449 347.1112  12.9596 15.15633464  3069
SHIJIAN-30C             
1 66547U 25266C   25343.32940725  .00014308  00000+0  75667-3 0  9997
2 66547  51.7984 348.8525 0011360 339.3925  20.6592 15.15641651  3062
CZ-2C R/B               
1 66548U 25266D   25343.27074742  .00013661  00000+0  42678-3 0  9996
2 66548  52.0568 347.8047 0084126 161.1693 199.2437 15.30065913  3087
SHIJIAN-28              
1 66549U 25277A   25335.19215829 -.00000033  00000+0  00000+0 0  9993
2 66549  11.5392 275.7060 6308324 179.9335 180.3971  2.08595383    50
CZ-7A R/B               
1 66550U 25277B   25342.45107649  .01610432  91299-6  28793-2 0  9991
2 66550  14.4003 272.0222 7123859 184.9879 159.4980  2.55273447   234
UNKNOWN                 
1 66551U 25271AE  25336.66670139 -.01709685  00000+0 -74303-2 0  9993
2 66551  53.1571 236.7807 0000717 110.7411 313.9012 15.87051116  2624
